[{"OBJECT_NAME":"STARLINK-34529","OBJECT_ID":"2025-158E","EPOCH":"2026-03-09T14:58:30.160416","MEAN_MOTION":15.05656113,"ECCENTRICITY":0.0002377,"INCLINATION":97.6026,"RA_OF_ASC_NODE":293.9861,"ARG_OF_PERICENTER":80.3711,"MEAN_ANOMALY":279.7784,"EPHEMERIS_TYPE":0,"CLASSIFICATION_TYPE":"U","NORAD_CAT_ID":64936,"ELEMENT_SET_NO":999,"REV_AT_EPOCH":3534,"BSTAR":0.00034875,"MEAN_MOTION_DOT":4.976e-5,"MEAN_MOTION_DDOT":0},{"OBJECT_NAME":"UNKNOWN","OBJECT_ID":"","EPOCH":"2026-03-09T06:40:17.770944","MEAN_MOTION":13.93999236,"ECCENTRICITY":0.0496409,"INCLINATION":63.0116,"RA_OF_ASC_NODE":359.5695,"ARG_OF_PERICENTER":301.9459,"MEAN_ANOMALY":53.4224,"EPHEMERIS_TYPE":0,"CLASSIFICATION_TYPE":"U","NORAD_CAT_ID":82205,"ELEMENT_SET_NO":999,"REV_AT_EPOCH":62006,"BSTAR":0.0010476,"MEAN_MOTION_DOT":3.786e-5,"MEAN_MOTION_DDOT":0}]
